[{"CCSDS_OMM_VERS":"3.0","COMMENT":"GENERATED VIA SPACE-TRACK.ORG API","CREATION_DATE":"2023-09-19T05:36:29","ORIGINATOR":"18 SPCS","OBJECT_NAME":"COSMOS 2251 DEB","OBJECT_ID":"1993-036RC","CENTER_NAME":"EARTH","REF_FRAME":"TEME","TIME_SYSTEM":"UTC","MEAN_ELEMENT_THEORY":"SGP4","EPOCH":"2023-09-18T12:45:15.723936","MEAN_MOTION":"16.35264519","ECCENTRICITY":"0.00107970","INCLINATION":"73.9856","RA_OF_ASC_NODE":"58.8319","ARG_OF_PERICENTER":"321.4217","MEAN_ANOMALY":"38.6267","EPHEMERIS_TYPE":"0","CLASSIFICATION_TYPE":"U","NORAD_CAT_ID":"34411","ELEMENT_SET_NO":"999","REV_AT_EPOCH":"78427","BSTAR":"0.00321900000000","MEAN_MOTION_DOT":"0.24388303","MEAN_MOTION_DDOT":"0.0000019244000","SEMIMAJOR_AXIS":"6556.567","PERIOD":"88.059","APOAPSIS":"185.511","PERIAPSIS":"171.353","OBJECT_TYPE":"DEBRIS","RCS_SIZE":"SMALL","COUNTRY_CODE":"CIS","LAUNCH_DATE":"1993-06-16","SITE":"PKMTR","DECAY_DATE":"2023-09-19","FILE":"4010127","GP_ID":"237412667","TLE_LINE0":"0 COSMOS 2251 DEB","TLE_LINE1":"1 34411U 93036RC  23261.53143199  .24388303  19244-5  32190-2 0  9996","TLE_LINE2":"2 34411  73.9856  58.8319 0010797 321.4217  38.6267 16.35264519784273"},{"CCSDS_OMM_VERS":"3.0","COMMENT":"GENERATED VIA SPACE-TRACK.ORG API","CREATION_DATE":"2026-03-28T16:36:19","ORIGINATOR":"18 SPCS","OBJECT_NAME":"COSMOS 2251 DEB","OBJECT_ID":"1993-036RD","CENTER_NAME":"EARTH","REF_FRAME":"TEME","TIME_SYSTEM":"UTC","MEAN_ELEMENT_THEORY":"SGP4","EPOCH":"2026-03-28T11:50:48.252192","MEAN_MOTION":"14.48372233","ECCENTRICITY":"0.01876140","INCLINATION":"73.9464","RA_OF_ASC_NODE":"125.4999","ARG_OF_PERICENTER":"198.1729","MEAN_ANOMALY":"161.2667","EPHEMERIS_TYPE":"0","CLASSIFICATION_TYPE":"U","NORAD_CAT_ID":"34412","ELEMENT_SET_NO":"999","REV_AT_EPOCH":"89181","BSTAR":"0.00077581000000","MEAN_MOTION_DOT":"0.00003598","MEAN_MOTION_DDOT":"0.0000000000000","SEMIMAJOR_AXIS":"7109.107","PERIOD":"99.422","APOAPSIS":"864.349","PERIAPSIS":"597.595","OBJECT_TYPE":"DEBRIS","RCS_SIZE":"SMALL","COUNTRY_CODE":"CIS","LAUNCH_DATE":"1993-06-16","SITE":"PKMTR","DECAY_DATE":null,"FILE":"5103575","GP_ID":"317420713","TLE_LINE0":"0 COSMOS 2251 DEB","TLE_LINE1":"1 34412U 93036RD  26087.49361403  .00003598  00000-0  77581-3 0  9994","TLE_LINE2":"2 34412  73.9464 125.4999 0187614 198.1729 161.2667 14.48372233891815"},{"CCSDS_OMM_VERS":"3.0","COMMENT":"GENERATED VIA SPACE-TRACK.ORG API","CREATION_DATE":"2026-03-28T16:36:19","ORIGINATOR":"18 SPCS","OBJECT_NAME":"COSMOS 2251 DEB","OBJECT_ID":"1993-036RE","CENTER_NAME":"EARTH","REF_FRAME":"TEME","TIME_SYSTEM":"UTC","MEAN_ELEMENT_THEORY":"SGP4","EPOCH":"2026-03-28T09:02:53.667456","MEAN_MOTION":"14.29883878","ECCENTRICITY":"0.00882920","INCLINATION":"74.0292","RA_OF_ASC_NODE":"72.8865","ARG_OF_PERICENTER":"127.8980","MEAN_ANOMALY":"356.2792","EPHEMERIS_TYPE":"0","CLASSIFICATION_TYPE":"U","NORAD_CAT_ID":"34413","ELEMENT_SET_NO":"999","REV_AT_EPOCH":"88640","BSTAR":"0.00097435000000","MEAN_MOTION_DOT":"0.00002592","MEAN_MOTION_DDOT":"0.0000000000000","SEMIMAJOR_AXIS":"7170.256","PERIOD":"100.707","APOAPSIS":"855.429","PERIAPSIS":"728.813","OBJECT_TYPE":"DEBRIS","RCS_SIZE":"SMALL","COUNTRY_CODE":"CIS","LAUNCH_DATE":"1993-06-16","SITE":"PKMTR","DECAY_DATE":null,"FILE":"5103575","GP_ID":"317421213","TLE_LINE0":"0 COSMOS 2251 DEB","TLE_LINE1":"1 34413U 93036RE  26087.37701004  .00002592  00000-0  97435-3 0  9990","TLE_LINE2":"2 34413  74.0292  72.8865 0088292 127.8980 356.2792 14.29883878886409"},{"CCSDS_OMM_VERS":"3.0","COMMENT":"GENERATED VIA SPACE-TRACK.ORG API","CREATION_DATE":"2009-03-31T07:53:40","ORIGINATOR":"18 SPCS","OBJECT_NAME":"COSMOS 2251 DEB","OBJECT_ID":"1993-036RF","CENTER_NAME":"EARTH","REF_FRAME":"TEME","TIME_SYSTEM":"UTC","MEAN_ELEMENT_THEORY":"SGP4","EPOCH":"2009-03-27T06:29:22.686144","MEAN_MOTION":"16.10374493","ECCENTRICITY":"0.00597040","INCLINATION":"74.0148","RA_OF_ASC_NODE":"280.5081","ARG_OF_PERICENTER":"191.2103","MEAN_ANOMALY":"168.9356","EPHEMERIS_TYPE":"0","CLASSIFICATION_TYPE":"U","NORAD_CAT_ID":"34414","ELEMENT_SET_NO":"999","REV_AT_EPOCH":"557","BSTAR":"0.00569670000000","MEAN_MOTION_DOT":"0.07232777","MEAN_MOTION_DDOT":"0.0000015602000","SEMIMAJOR_AXIS":"6623.957","PERIOD":"89.420","APOAPSIS":"285.370","PERIAPSIS":"206.274","OBJECT_TYPE":"DEBRIS","RCS_SIZE":"SMALL","COUNTRY_CODE":"CIS","LAUNCH_DATE":"1993-06-16","SITE":"PKMTR","DECAY_DATE":"2009-03-27","FILE":"694238","GP_ID":"70557016","TLE_LINE0":"0 COSMOS 2251 DEB","TLE_LINE1":"1 34414U 93036RF  09086.27040146  .07232777  15602-5  56967-2 0  9993","TLE_LINE2":"2 34414 074.0148 280.5081 0059704 191.2103 168.9356 16.10374493  5571"},{"CCSDS_OMM_VERS":"3.0","COMMENT":"GENERATED VIA SPACE-TRACK.ORG API","CREATION_DATE":"2009-11-29T15:48:41","ORIGINATOR":"18 SPCS","OBJECT_NAME":"COSMOS 2251 DEB","OBJECT_ID":"1993-036RG","CENTER_NAME":"EARTH","REF_FRAME":"TEME","TIME_SYSTEM":"UTC","MEAN_ELEMENT_THEORY":"SGP4","EPOCH":"2009-11-29T19:54:10.582560","MEAN_MOTION":"16.19352399","ECCENTRICITY":"0.00439500","INCLINATION":"74.0208","RA_OF_ASC_NODE":"117.8172","ARG_OF_PERICENTER":"303.9657","MEAN_ANOMALY":"56.9488","EPHEMERIS_TYPE":"0","CLASSIFICATION_TYPE":"U","NORAD_CAT_ID":"34415","ELEMENT_SET_NO":"999","REV_AT_EPOCH":"4304","BSTAR":"0.00566510000000","MEAN_MOTION_DOT":"0.12538783","MEAN_MOTION_DDOT":"0.0000022104000","SEMIMAJOR_AXIS":"6599.451","PERIOD":"88.924","APOAPSIS":"250.321","PERIAPSIS":"192.312","OBJECT_TYPE":"DEBRIS","RCS_SIZE":"SMALL","COUNTRY_CODE":"CIS","LAUNCH_DATE":"1993-06-16","SITE":"PKMTR","DECAY_DATE":"2009-11-29","FILE":"806699","GP_ID":"74230001","TLE_LINE0":"0 COSMOS 2251 DEB","TLE_LINE1":"1 34415U 93036RG  09333.82928915  .12538783  22104-5  56651-2 0  9996","TLE_LINE2":"2 34415 074.0208 117.8172 0043950 303.9657 056.9488 16.19352399 43040"},{"CCSDS_OMM_VERS":"3.0","COMMENT":"GENERATED VIA SPACE-TRACK.ORG API","CREATION_DATE":"2011-10-04T09:03:33","ORIGINATOR":"18 SPCS","OBJECT_NAME":"COSMOS 2251 DEB","OBJECT_ID":"1993-036RH","CENTER_NAME":"EARTH","REF_FRAME":"TEME","TIME_SYSTEM":"UTC","MEAN_ELEMENT_THEORY":"SGP4","EPOCH":"2011-10-04T05:59:00.385727","MEAN_MOTION":"16.14243227","ECCENTRICITY":"0.00259570","INCLINATION":"73.8931","RA_OF_ASC_NODE":"160.2522","ARG_OF_PERICENTER":"179.5796","MEAN_ANOMALY":"180.6109","EPHEMERIS_TYPE":"0","CLASSIFICATION_TYPE":"U","NORAD_CAT_ID":"34416","ELEMENT_SET_NO":"999","REV_AT_EPOCH":"14467","BSTAR":"0.00531140000000","MEAN_MOTION_DOT":"0.07026681","MEAN_MOTION_DDOT":"0.0000018223000","SEMIMAJOR_AXIS":"6613.369","PERIOD":"89.205","APOAPSIS":"252.401","PERIAPSIS":"218.068","OBJECT_TYPE":"DEBRIS","RCS_SIZE":"SMALL","COUNTRY_CODE":"CIS","LAUNCH_DATE":"1993-06-16","SITE":"PKMTR","DECAY_DATE":"2011-10-04","FILE":"1165544","GP_ID":"85271589","TLE_LINE0":"0 COSMOS 2251 DEB","TLE_LINE1":"1 34416U 93036RH  11277.24931002  .07026681  18223-5  53114-2 0  9995","TLE_LINE2":"2 34416 073.8931 160.2522 0025957 179.5796 180.6109 16.14243227144670"},{"CCSDS_OMM_VERS":"3.0","COMMENT":"GENERATED VIA SPACE-TRACK.ORG API","CREATION_DATE":"2010-10-07T11:50:01","ORIGINATOR":"18 SPCS","OBJECT_NAME":"COSMOS 2251 DEB","OBJECT_ID":"1993-036RJ","CENTER_NAME":"EARTH","REF_FRAME":"TEME","TIME_SYSTEM":"UTC","MEAN_ELEMENT_THEORY":"SGP4","EPOCH":"2010-09-30T20:51:07.998911","MEAN_MOTION":"15.98264941","ECCENTRICITY":"0.00230850","INCLINATION":"74.0016","RA_OF_ASC_NODE":"217.8391","ARG_OF_PERICENTER":"256.1358","MEAN_ANOMALY":"103.7508","EPHEMERIS_TYPE":"0","CLASSIFICATION_TYPE":"U","NORAD_CAT_ID":"34417","ELEMENT_SET_NO":"999","REV_AT_EPOCH":"8867","BSTAR":"0.00642270000000","MEAN_MOTION_DOT":"0.03065444","MEAN_MOTION_DDOT":"0.0000000000000","SEMIMAJOR_AXIS":"6657.373","PERIOD":"90.097","APOAPSIS":"294.607","PERIAPSIS":"263.870","OBJECT_TYPE":"DEBRIS","RCS_SIZE":"SMALL","COUNTRY_CODE":"CIS","LAUNCH_DATE":"1993-06-16","SITE":"PKMTR","DECAY_DATE":"2010-10-01","FILE":"974000","GP_ID":"79875236","TLE_LINE0":"0 COSMOS 2251 DEB","TLE_LINE1":"1 34417U 93036RJ  10273.86884258  .03065444  00000-0  64227-2 0  9991","TLE_LINE2":"2 34417 074.0016 217.8391 0023085 256.1358 103.7508 15.98264941 88670"},{"CCSDS_OMM_VERS":"3.0","COMMENT":"GENERATED VIA SPACE-TRACK.ORG API","CREATION_DATE":"2011-11-27T09:31:52","ORIGINATOR":"18 SPCS","OBJECT_NAME":"COSMOS 2251 DEB","OBJECT_ID":"1993-036RK","CENTER_NAME":"EARTH","REF_FRAME":"TEME","TIME_SYSTEM":"UTC","MEAN_ELEMENT_THEORY":"SGP4","EPOCH":"2011-11-27T06:30:45.752832","MEAN_MOTION":"15.94523869","ECCENTRICITY":"0.00124800","INCLINATION":"73.9406","RA_OF_ASC_NODE":"128.4579","ARG_OF_PERICENTER":"36.8316","MEAN_ANOMALY":"323.4102","EPHEMERIS_TYPE":"0","CLASSIFICATION_TYPE":"U","NORAD_CAT_ID":"34418","ELEMENT_SET_NO":"999","REV_AT_EPOCH":"15065","BSTAR":"0.02006900000000","MEAN_MOTION_DOT":"0.05755741","MEAN_MOTION_DDOT":"0.0566650000000","SEMIMAJOR_AXIS":"6667.782","PERIOD":"90.309","APOAPSIS":"297.969","PERIAPSIS":"281.326","OBJECT_TYPE":"DEBRIS","RCS_SIZE":"SMALL","COUNTRY_CODE":"CIS","LAUNCH_DATE":"1993-06-16","SITE":"PKMTR","DECAY_DATE":"2011-11-27","FILE":"1195942","GP_ID":"86079433","TLE_LINE0":"0 COSMOS 2251 DEB","TLE_LINE1":"1 34418U 93036RK  11331.27136288  .05755741  56665-1  20069-1 0  9998","TLE_LINE2":"2 34418 073.9406 128.4579 0012480 036.8316 323.4102 15.94523869150653"}]